[{"OBJECT_NAME":"STARLINK-4127","OBJECT_ID":"2022-086S","EPOCH":"2026-03-09T14:54:40.795200","MEAN_MOTION":15.08834707,"ECCENTRICITY":0.0001043,"INCLINATION":53.2173,"RA_OF_ASC_NODE":194.4274,"ARG_OF_PERICENTER":95.704,"MEAN_ANOMALY":264.4071,"EPHEMERIS_TYPE":0,"CLASSIFICATION_TYPE":"U","NORAD_CAT_ID":53258,"ELEMENT_SET_NO":999,"REV_AT_EPOCH":20105,"BSTAR":4.4471e-5,"MEAN_MOTION_DOT":4.2e-6,"MEAN_MOTION_DDOT":0},{"OBJECT_NAME":"CZ-4C R\/B","OBJECT_ID":"2022-039B","EPOCH":"2026-03-09T15:51:32.485824","MEAN_MOTION":15.03008334,"ECCENTRICITY":0.0113659,"INCLINATION":98.2525,"RA_OF_ASC_NODE":105.9247,"ARG_OF_PERICENTER":45.8852,"MEAN_ANOMALY":315.1654,"EPHEMERIS_TYPE":0,"CLASSIFICATION_TYPE":"U","NORAD_CAT_ID":52258,"ELEMENT_SET_NO":999,"REV_AT_EPOCH":21291,"BSTAR":0.00022979194,"MEAN_MOTION_DOT":3.483e-5,"MEAN_MOTION_DDOT":0}]
